[{"OBJECT_NAME":"STARLINK-2685","OBJECT_ID":"2021-040AS","EPOCH":"2026-03-10T00:00:02.999808","MEAN_MOTION":15.22639637,"ECCENTRICITY":0.0001772,"INCLINATION":53.1253,"RA_OF_ASC_NODE":189.7147,"ARG_OF_PERICENTER":86.2021,"MEAN_ANOMALY":349.9142,"EPHEMERIS_TYPE":0,"CLASSIFICATION_TYPE":"U","NORAD_CAT_ID":48468,"ELEMENT_SET_NO":999,"REV_AT_EPOCH":574,"BSTAR":0.06523857,"MEAN_MOTION_DOT":0.01676642,"MEAN_MOTION_DDOT":0},{"OBJECT_NAME":"CZ-4 DEB","OBJECT_ID":"2007-042D","EPOCH":"2026-03-08T12:29:11.863680","MEAN_MOTION":15.39020135,"ECCENTRICITY":0.00238388,"INCLINATION":98.6648,"RA_OF_ASC_NODE":274.5168,"ARG_OF_PERICENTER":151.0279,"MEAN_ANOMALY":209.2291,"EPHEMERIS_TYPE":0,"CLASSIFICATION_TYPE":"U","NORAD_CAT_ID":32474,"ELEMENT_SET_NO":999,"REV_AT_EPOCH":98579,"BSTAR":0.0030401644,"MEAN_MOTION_DOT":0.00120221,"MEAN_MOTION_DDOT":0}]
